{
"type": "FeatureCollection",
"name": "Sedes_MA",
"crs": { "type": "name", "properties": { "name": "urn:ogc:def:crs:OGC:1.3:CRS84" } },
"xy_coordinate_resolution": 1e-06,
"features": [
{ "type": "Feature", "properties": { "CID_MUN_CD": 2111300, "CID_NM": "São Luís", "CID_SG_UF": "MA", "CID_NU_IBG": null, "CID_GM_PON": null, "CIDADE_TP": "Capital Estadual", "lat_cid": -2.54210241, "long_cid": -44.2109873 }, "geometry": { "type": "Point", "coordinates": [ -44.210987, -2.542102, 0.0 ] } },
{ "type": "Feature", "properties": { "CID_MUN_CD": 2102101, "CID_NM": "Brejo", "CID_SG_UF": "MA", "CID_NU_IBG": "210210105", "CID_GM_PON": null, "CIDADE_TP": null, "lat_cid": -3.67986105, "long_cid": -42.7541158 }, "geometry": { "type": "Point", "coordinates": [ -42.754116, -3.679861, 0.0 ] } },
{ "type": "Feature", "properties": { "CID_MUN_CD": 2102200, "CID_NM": "Buriti", "CID_SG_UF": "MA", "CID_NU_IBG": "210220005", "CID_GM_PON": null, "CIDADE_TP": null, "lat_cid": -3.94429971, "long_cid": -42.9139882 }, "geometry": { "type": "Point", "coordinates": [ -42.913988, -3.9443, 0.0 ] } },
{ "type": "Feature", "properties": { "CID_MUN_CD": 2109452, "CID_NM": "Raposa", "CID_SG_UF": "MA", "CID_NU_IBG": "210945205", "CID_GM_PON": null, "CIDADE_TP": null, "lat_cid": -2.44265543, "long_cid": -44.1032076 }, "geometry": { "type": "Point", "coordinates": [ -44.103208, -2.442655, 0.0 ] } },
{ "type": "Feature", "properties": { "CID_MUN_CD": 2107258, "CID_NM": "Nova Colinas", "CID_SG_UF": "MA", "CID_NU_IBG": "210725805", "CID_GM_PON": null, "CIDADE_TP": null, "lat_cid": -7.11998875, "long_cid": -46.2602338 }, "geometry": { "type": "Point", "coordinates": [ -46.260234, -7.119989, 0.0 ] } },
{ "type": "Feature", "properties": { "CID_MUN_CD": 2109205, "CID_NM": "Presidente Juscelino", "CID_SG_UF": "MA", "CID_NU_IBG": "210920505", "CID_GM_PON": null, "CIDADE_TP": null, "lat_cid": -2.92767896, "long_cid": -44.07142 }, "geometry": { "type": "Point", "coordinates": [ -44.07142, -2.927679, 0.0 ] } },
{ "type": "Feature", "properties": { "CID_MUN_CD": 2101731, "CID_NM": "Belágua", "CID_SG_UF": "MA", "CID_NU_IBG": "210173105", "CID_GM_PON": null, "CIDADE_TP": null, "lat_cid": -3.16039383, "long_cid": -43.5083757 }, "geometry": { "type": "Point", "coordinates": [ -43.508376, -3.160394, 0.0 ] } },
{ "type": "Feature", "properties": { "CID_MUN_CD": 2111052, "CID_NM": "São João do Paraíso", "CID_SG_UF": "MA", "CID_NU_IBG": "211105205", "CID_GM_PON": null, "CIDADE_TP": null, "lat_cid": -6.46505534, "long_cid": -47.0565881 }, "geometry": { "type": "Point", "coordinates": [ -47.056588, -6.465055, 0.0 ] } },
{ "type": "Feature", "properties": { "CID_MUN_CD": 2109106, "CID_NM": "Presidente Dutra", "CID_SG_UF": "MA", "CID_NU_IBG": "210910605", "CID_GM_PON": null, "CIDADE_TP": null, "lat_cid": -5.2975281, "long_cid": -44.4923768 }, "geometry": { "type": "Point", "coordinates": [ -44.492377, -5.297528, 0.0 ] } },
{ "type": "Feature", "properties": { "CID_MUN_CD": 2105351, "CID_NM": "Itaipava do Grajaú", "CID_SG_UF": "MA", "CID_NU_IBG": "210535105", "CID_GM_PON": null, "CIDADE_TP": null, "lat_cid": -5.14265357, "long_cid": -45.7891299 }, "geometry": { "type": "Point", "coordinates": [ -45.78913, -5.142654, 0.0 ] } },
{ "type": "Feature", "properties": { "CID_MUN_CD": 2109502, "CID_NM": "Riachão", "CID_SG_UF": "MA", "CID_NU_IBG": "210950205", "CID_GM_PON": null, "CIDADE_TP": null, "lat_cid": -7.36214463, "long_cid": -46.6220918 }, "geometry": { "type": "Point", "coordinates": [ -46.622092, -7.362145, 0.0 ] } },
{ "type": "Feature", "properties": { "CID_MUN_CD": 2104602, "CID_NM": "Governador Eugênio Barros", "CID_SG_UF": "MA", "CID_NU_IBG": "210460205", "CID_GM_PON": null, "CIDADE_TP": null, "lat_cid": -5.32193709, "long_cid": -44.2444203 }, "geometry": { "type": "Point", "coordinates": [ -44.24442, -5.321937, 0.0 ] } },
{ "type": "Feature", "properties": { "CID_MUN_CD": 2108900, "CID_NM": "Poção de Pedras", "CID_SG_UF": "MA", "CID_NU_IBG": "210890005", "CID_GM_PON": null, "CIDADE_TP": null, "lat_cid": -4.7511045, "long_cid": -44.9426186 }, "geometry": { "type": "Point", "coordinates": [ -44.942619, -4.751104, 0.0 ] } },
{ "type": "Feature", "properties": { "CID_MUN_CD": 2107100, "CID_NM": "Morros", "CID_SG_UF": "MA", "CID_NU_IBG": "210710005", "CID_GM_PON": null, "CIDADE_TP": null, "lat_cid": -2.86590146, "long_cid": -44.0364531 }, "geometry": { "type": "Point", "coordinates": [ -44.036453, -2.865901, 0.0 ] } },
{ "type": "Feature", "properties": { "CID_MUN_CD": 2100402, "CID_NM": "Altamira do Maranhão", "CID_SG_UF": "MA", "CID_NU_IBG": "210040205", "CID_GM_PON": null, "CIDADE_TP": null, "lat_cid": -4.16747651, "long_cid": -45.4700993 }, "geometry": { "type": "Point", "coordinates": [ -45.470099, -4.167477, 0.0 ] } },
{ "type": "Feature", "properties": { "CID_MUN_CD": 2102408, "CID_NM": "Cajapió", "CID_SG_UF": "MA", "CID_NU_IBG": "210240805", "CID_GM_PON": null, "CIDADE_TP": null, "lat_cid": -2.87374102, "long_cid": -44.6720527 }, "geometry": { "type": "Point", "coordinates": [ -44.672053, -2.873741, 0.0 ] } },
{ "type": "Feature", "properties": { "CID_MUN_CD": 2104701, "CID_NM": "Graça Aranha", "CID_SG_UF": "MA", "CID_NU_IBG": "210470105", "CID_GM_PON": null, "CIDADE_TP": null, "lat_cid": -5.40837284, "long_cid": -44.3327879 }, "geometry": { "type": "Point", "coordinates": [ -44.332788, -5.408373, 0.0 ] } },
{ "type": "Feature", "properties": { "CID_MUN_CD": 2113009, "CID_NM": "Vitorino Freire", "CID_SG_UF": "MA", "CID_NU_IBG": "211300905", "CID_GM_PON": null, "CIDADE_TP": null, "lat_cid": -4.28909728, "long_cid": -45.2461517 }, "geometry": { "type": "Point", "coordinates": [ -45.246152, -4.289097, 0.0 ] } },
{ "type": "Feature", "properties": { "CID_MUN_CD": 2102309, "CID_NM": "Buriti Bravo", "CID_SG_UF": "MA", "CID_NU_IBG": "210230905", "CID_GM_PON": null, "CIDADE_TP": null, "lat_cid": -5.83764195, "long_cid": -43.8353533 }, "geometry": { "type": "Point", "coordinates": [ -43.835353, -5.837642, 0.0 ] } },
{ "type": "Feature", "properties": { "CID_MUN_CD": 2104008, "CID_NM": "Esperantinópolis", "CID_SG_UF": "MA", "CID_NU_IBG": "210400805", "CID_GM_PON": null, "CIDADE_TP": null, "lat_cid": -4.89813555, "long_cid": -44.725686 }, "geometry": { "type": "Point", "coordinates": [ -44.725686, -4.898136, 0.0 ] } },
{ "type": "Feature", "properties": { "CID_MUN_CD": 2110500, "CID_NM": "São Bento", "CID_SG_UF": "MA", "CID_NU_IBG": "211050005", "CID_GM_PON": null, "CIDADE_TP": null, "lat_cid": -2.70004909, "long_cid": -44.8400413 }, "geometry": { "type": "Point", "coordinates": [ -44.840041, -2.700049, 0.0 ] } },
{ "type": "Feature", "properties": { "CID_MUN_CD": 2106003, "CID_NM": "Lima Campos", "CID_SG_UF": "MA", "CID_NU_IBG": "210600305", "CID_GM_PON": null, "CIDADE_TP": null, "lat_cid": -4.52003984, "long_cid": -44.4666921 }, "geometry": { "type": "Point", "coordinates": [ -44.466692, -4.52004, 0.0 ] } },
{ "type": "Feature", "properties": { "CID_MUN_CD": 2111003, "CID_NM": "São João Batista", "CID_SG_UF": "MA", "CID_NU_IBG": "211100305", "CID_GM_PON": null, "CIDADE_TP": null, "lat_cid": -2.95843195, "long_cid": -44.797611 }, "geometry": { "type": "Point", "coordinates": [ -44.797611, -2.958432, 0.0 ] } },
{ "type": "Feature", "properties": { "CID_MUN_CD": 2105963, "CID_NM": "Lagoa Grande do Maranhão", "CID_SG_UF": "MA", "CID_NU_IBG": "210596305", "CID_GM_PON": null, "CIDADE_TP": null, "lat_cid": -4.99242989, "long_cid": -45.3851161 }, "geometry": { "type": "Point", "coordinates": [ -45.385116, -4.99243, 0.0 ] } },
{ "type": "Feature", "properties": { "CID_MUN_CD": 2105450, "CID_NM": "Jatobá", "CID_SG_UF": "MA", "CID_NU_IBG": "210545005", "CID_GM_PON": null, "CIDADE_TP": null, "lat_cid": -5.81935078, "long_cid": -44.224819 }, "geometry": { "type": "Point", "coordinates": [ -44.224819, -5.819351, 0.0 ] } },
{ "type": "Feature", "properties": { "CID_MUN_CD": 2109007, "CID_NM": "Porto Franco", "CID_SG_UF": "MA", "CID_NU_IBG": "210900705", "CID_GM_PON": null, "CIDADE_TP": null, "lat_cid": -6.34366594, "long_cid": -47.3954775 }, "geometry": { "type": "Point", "coordinates": [ -47.395478, -6.343666, 0.0 ] } },
{ "type": "Feature", "properties": { "CID_MUN_CD": 2105476, "CID_NM": "Jenipapo dos Vieiras", "CID_SG_UF": "MA", "CID_NU_IBG": "210547605", "CID_GM_PON": null, "CIDADE_TP": null, "lat_cid": -5.36957182, "long_cid": -45.6360672 }, "geometry": { "type": "Point", "coordinates": [ -45.636067, -5.369572, 0.0 ] } },
{ "type": "Feature", "properties": { "CID_MUN_CD": 2103554, "CID_NM": "Conceição do Lago-Açu", "CID_SG_UF": "MA", "CID_NU_IBG": "210355405", "CID_GM_PON": null, "CIDADE_TP": null, "lat_cid": -3.83790421, "long_cid": -44.8970025 }, "geometry": { "type": "Point", "coordinates": [ -44.897003, -3.837904, 0.0 ] } },
{ "type": "Feature", "properties": { "CID_MUN_CD": 2102804, "CID_NM": "Carolina", "CID_SG_UF": "MA", "CID_NU_IBG": "210280405", "CID_GM_PON": null, "CIDADE_TP": null, "lat_cid": -7.33334218, "long_cid": -47.4657417 }, "geometry": { "type": "Point", "coordinates": [ -47.465742, -7.333342, 0.0 ] } },
{ "type": "Feature", "properties": { "CID_MUN_CD": 2111805, "CID_NM": "Sítio Novo", "CID_SG_UF": "MA", "CID_NU_IBG": "211180505", "CID_GM_PON": null, "CIDADE_TP": null, "lat_cid": -5.88117761, "long_cid": -46.702107 }, "geometry": { "type": "Point", "coordinates": [ -46.702107, -5.881178, 0.0 ] } },
{ "type": "Feature", "properties": { "CID_MUN_CD": 2105989, "CID_NM": "Lajeado Novo", "CID_SG_UF": "MA", "CID_NU_IBG": "210598905", "CID_GM_PON": null, "CIDADE_TP": null, "lat_cid": -6.18988212, "long_cid": -47.0373725 }, "geometry": { "type": "Point", "coordinates": [ -47.037373, -6.189882, 0.0 ] } },
{ "type": "Feature", "properties": { "CID_MUN_CD": 2104107, "CID_NM": "Fortaleza dos Nogueiras", "CID_SG_UF": "MA", "CID_NU_IBG": "210410705", "CID_GM_PON": null, "CIDADE_TP": null, "lat_cid": -6.96232147, "long_cid": -46.1781359 }, "geometry": { "type": "Point", "coordinates": [ -46.178136, -6.962321, 0.0 ] } },
{ "type": "Feature", "properties": { "CID_MUN_CD": 2107506, "CID_NM": "Paço do Lumiar", "CID_SG_UF": "MA", "CID_NU_IBG": "210750605", "CID_GM_PON": null, "CIDADE_TP": null, "lat_cid": -2.51761072, "long_cid": -44.1091849 }, "geometry": { "type": "Point", "coordinates": [ -44.109185, -2.517611, 0.0 ] } },
{ "type": "Feature", "properties": { "CID_MUN_CD": 2108108, "CID_NM": "Paulo Ramos", "CID_SG_UF": "MA", "CID_NU_IBG": "210810805", "CID_GM_PON": null, "CIDADE_TP": null, "lat_cid": -4.44787767, "long_cid": -45.2403196 }, "geometry": { "type": "Point", "coordinates": [ -45.24032, -4.447878, 0.0 ] } },
{ "type": "Feature", "properties": { "CID_MUN_CD": 2111409, "CID_NM": "São Luís Gonzaga do Maranhão", "CID_SG_UF": "MA", "CID_NU_IBG": "211140905", "CID_GM_PON": null, "CIDADE_TP": null, "lat_cid": -4.37713784, "long_cid": -44.6710135 }, "geometry": { "type": "Point", "coordinates": [ -44.671014, -4.377138, 0.0 ] } },
{ "type": "Feature", "properties": { "CID_MUN_CD": 2101400, "CID_NM": "Balsas", "CID_SG_UF": "MA", "CID_NU_IBG": "210140005", "CID_GM_PON": null, "CIDADE_TP": null, "lat_cid": -7.52661014, "long_cid": -46.0403521 }, "geometry": { "type": "Point", "coordinates": [ -46.040352, -7.52661, 0.0 ] } },
{ "type": "Feature", "properties": { "CID_MUN_CD": 2105500, "CID_NM": "João Lisboa", "CID_SG_UF": "MA", "CID_NU_IBG": "210550005", "CID_GM_PON": null, "CIDADE_TP": null, "lat_cid": -5.44721164, "long_cid": -47.4062105 }, "geometry": { "type": "Point", "coordinates": [ -47.406211, -5.447212, 0.0 ] } },
{ "type": "Feature", "properties": { "CID_MUN_CD": 2104552, "CID_NM": "Governador Edison Lobão", "CID_SG_UF": "MA", "CID_NU_IBG": "210455205", "CID_GM_PON": null, "CIDADE_TP": null, "lat_cid": -5.74947703, "long_cid": -47.3624305 }, "geometry": { "type": "Point", "coordinates": [ -47.362431, -5.749477, 0.0 ] } },
{ "type": "Feature", "properties": { "CID_MUN_CD": 2110203, "CID_NM": "Santa Rita", "CID_SG_UF": "MA", "CID_NU_IBG": "211020305", "CID_GM_PON": null, "CIDADE_TP": null, "lat_cid": -3.13751806, "long_cid": -44.3260371 }, "geometry": { "type": "Point", "coordinates": [ -44.326037, -3.137518, 0.0 ] } },
{ "type": "Feature", "properties": { "CID_MUN_CD": 2107605, "CID_NM": "Palmeirândia", "CID_SG_UF": "MA", "CID_NU_IBG": "210760505", "CID_GM_PON": null, "CIDADE_TP": null, "lat_cid": -2.64656365, "long_cid": -44.8974352 }, "geometry": { "type": "Point", "coordinates": [ -44.897435, -2.646564, 0.0 ] } },
{ "type": "Feature", "properties": { "CID_MUN_CD": 2111607, "CID_NM": "São Raimundo das Mangabeiras", "CID_SG_UF": "MA", "CID_NU_IBG": "211160705", "CID_GM_PON": null, "CIDADE_TP": null, "lat_cid": -7.02201423, "long_cid": -45.478634 }, "geometry": { "type": "Point", "coordinates": [ -45.478634, -7.022014, 0.0 ] } },
{ "type": "Feature", "properties": { "CID_MUN_CD": 2108801, "CID_NM": "Pirapemas", "CID_SG_UF": "MA", "CID_NU_IBG": "210880105", "CID_GM_PON": null, "CIDADE_TP": null, "lat_cid": -3.72594091, "long_cid": -44.2292107 }, "geometry": { "type": "Point", "coordinates": [ -44.229211, -3.725941, 0.0 ] } },
{ "type": "Feature", "properties": { "CID_MUN_CD": 2108207, "CID_NM": "Pedreiras", "CID_SG_UF": "MA", "CID_NU_IBG": "210820705", "CID_GM_PON": null, "CIDADE_TP": null, "lat_cid": -4.57121087, "long_cid": -44.5990294 }, "geometry": { "type": "Point", "coordinates": [ -44.599029, -4.571211, 0.0 ] } },
{ "type": "Feature", "properties": { "CID_MUN_CD": 2112233, "CID_NM": "Trizidela do Vale", "CID_SG_UF": "MA", "CID_NU_IBG": "211223305", "CID_GM_PON": null, "CIDADE_TP": null, "lat_cid": -4.56824181, "long_cid": -44.6164566 }, "geometry": { "type": "Point", "coordinates": [ -44.616457, -4.568242, 0.0 ] } },
{ "type": "Feature", "properties": { "CID_MUN_CD": 2111201, "CID_NM": "São José de Ribamar", "CID_SG_UF": "MA", "CID_NU_IBG": "211120105", "CID_GM_PON": null, "CIDADE_TP": null, "lat_cid": -2.55383896, "long_cid": -44.0581203 }, "geometry": { "type": "Point", "coordinates": [ -44.05812, -2.553839, 0.0 ] } },
{ "type": "Feature", "properties": { "CID_MUN_CD": 2111722, "CID_NM": "Satubinha", "CID_SG_UF": "MA", "CID_NU_IBG": "211172205", "CID_GM_PON": null, "CIDADE_TP": null, "lat_cid": -4.03719451, "long_cid": -45.2387388 }, "geometry": { "type": "Point", "coordinates": [ -45.238739, -4.037195, 0.0 ] } },
{ "type": "Feature", "properties": { "CID_MUN_CD": 2100956, "CID_NM": "Arame", "CID_SG_UF": "MA", "CID_NU_IBG": "210095605", "CID_GM_PON": null, "CIDADE_TP": null, "lat_cid": -4.88822147, "long_cid": -46.0087076 }, "geometry": { "type": "Point", "coordinates": [ -46.008708, -4.888221, 0.0 ] } },
{ "type": "Feature", "properties": { "CID_MUN_CD": 2105302, "CID_NM": "Imperatriz", "CID_SG_UF": "MA", "CID_NU_IBG": "210530205", "CID_GM_PON": null, "CIDADE_TP": null, "lat_cid": -5.51381572, "long_cid": -47.4670777 }, "geometry": { "type": "Point", "coordinates": [ -47.467078, -5.513816, 0.0 ] } },
{ "type": "Feature", "properties": { "CID_MUN_CD": 2107209, "CID_NM": "Nina Rodrigues", "CID_SG_UF": "MA", "CID_NU_IBG": "210720905", "CID_GM_PON": null, "CIDADE_TP": null, "lat_cid": -3.46758435, "long_cid": -43.9114955 }, "geometry": { "type": "Point", "coordinates": [ -43.911496, -3.467584, 0.0 ] } },
{ "type": "Feature", "properties": { "CID_MUN_CD": 2110708, "CID_NM": "São Domingos do Maranhão", "CID_SG_UF": "MA", "CID_NU_IBG": "211070805", "CID_GM_PON": null, "CIDADE_TP": null, "lat_cid": -5.58093807, "long_cid": -44.3852009 }, "geometry": { "type": "Point", "coordinates": [ -44.385201, -5.580938, 0.0 ] } },
{ "type": "Feature", "properties": { "CID_MUN_CD": 2103125, "CID_NM": "Central do Maranhão", "CID_SG_UF": "MA", "CID_NU_IBG": "210312505", "CID_GM_PON": null, "CIDADE_TP": null, "lat_cid": -2.19683383, "long_cid": -44.8313137 }, "geometry": { "type": "Point", "coordinates": [ -44.831314, -2.196834, 0.0 ] } },
{ "type": "Feature", "properties": { "CID_MUN_CD": 2101608, "CID_NM": "Barra do Corda", "CID_SG_UF": "MA", "CID_NU_IBG": "210160805", "CID_GM_PON": null, "CIDADE_TP": null, "lat_cid": -5.49706654, "long_cid": -45.250484 }, "geometry": { "type": "Point", "coordinates": [ -45.250484, -5.497067, 0.0 ] } },
{ "type": "Feature", "properties": { "CID_MUN_CD": 2106631, "CID_NM": "Matões do Norte", "CID_SG_UF": "MA", "CID_NU_IBG": "210663105", "CID_GM_PON": null, "CIDADE_TP": null, "lat_cid": -3.62958902, "long_cid": -44.5549604 }, "geometry": { "type": "Point", "coordinates": [ -44.55496, -3.629589, 0.0 ] } },
{ "type": "Feature", "properties": { "CID_MUN_CD": 2101004, "CID_NM": "Arari", "CID_SG_UF": "MA", "CID_NU_IBG": "210100405", "CID_GM_PON": null, "CIDADE_TP": null, "lat_cid": -3.45539171, "long_cid": -44.7771032 }, "geometry": { "type": "Point", "coordinates": [ -44.777103, -3.455392, 0.0 ] } },
{ "type": "Feature", "properties": { "CID_MUN_CD": 2112308, "CID_NM": "Tuntum", "CID_SG_UF": "MA", "CID_NU_IBG": "211230805", "CID_GM_PON": null, "CIDADE_TP": null, "lat_cid": -5.26022498, "long_cid": -44.6471386 }, "geometry": { "type": "Point", "coordinates": [ -44.647139, -5.260225, 0.0 ] } },
{ "type": "Feature", "properties": { "CID_MUN_CD": 2112704, "CID_NM": "Vargem Grande", "CID_SG_UF": "MA", "CID_NU_IBG": "211270405", "CID_GM_PON": null, "CIDADE_TP": null, "lat_cid": -3.5453705, "long_cid": -43.9174509 }, "geometry": { "type": "Point", "coordinates": [ -43.917451, -3.54537, 0.0 ] } },
{ "type": "Feature", "properties": { "CID_MUN_CD": 2101939, "CID_NM": "Bernardo do Mearim", "CID_SG_UF": "MA", "CID_NU_IBG": "210193905", "CID_GM_PON": null, "CIDADE_TP": null, "lat_cid": -4.62939109, "long_cid": -44.7612964 }, "geometry": { "type": "Point", "coordinates": [ -44.761296, -4.629391, 0.0 ] } },
{ "type": "Feature", "properties": { "CID_MUN_CD": 2111763, "CID_NM": "Senador La Rocque", "CID_SG_UF": "MA", "CID_NU_IBG": "211176305", "CID_GM_PON": null, "CIDADE_TP": null, "lat_cid": -5.4448574, "long_cid": -47.2903809 }, "geometry": { "type": "Point", "coordinates": [ -47.290381, -5.444857, 0.0 ] } },
{ "type": "Feature", "properties": { "CID_MUN_CD": 2100436, "CID_NM": "Alto Alegre do Maranhão", "CID_SG_UF": "MA", "CID_NU_IBG": "210043605", "CID_GM_PON": null, "CIDADE_TP": null, "lat_cid": -4.21102004, "long_cid": -44.4530905 }, "geometry": { "type": "Point", "coordinates": [ -44.453091, -4.21102, 0.0 ] } },
{ "type": "Feature", "properties": { "CID_MUN_CD": 2105401, "CID_NM": "Itapecuru Mirim", "CID_SG_UF": "MA", "CID_NU_IBG": "210540105", "CID_GM_PON": null, "CIDADE_TP": null, "lat_cid": -3.39449279, "long_cid": -44.3521475 }, "geometry": { "type": "Point", "coordinates": [ -44.352148, -3.394493, 0.0 ] } },
{ "type": "Feature", "properties": { "CID_MUN_CD": 2101905, "CID_NM": "Bequimão", "CID_SG_UF": "MA", "CID_NU_IBG": "210190505", "CID_GM_PON": null, "CIDADE_TP": null, "lat_cid": -2.44950766, "long_cid": -44.7908697 }, "geometry": { "type": "Point", "coordinates": [ -44.79087, -2.449508, 0.0 ] } },
{ "type": "Feature", "properties": { "CID_MUN_CD": 2109601, "CID_NM": "Rosário", "CID_SG_UF": "MA", "CID_NU_IBG": "210960105", "CID_GM_PON": null, "CIDADE_TP": null, "lat_cid": -2.93851821, "long_cid": -44.2475253 }, "geometry": { "type": "Point", "coordinates": [ -44.247525, -2.938518, 0.0 ] } },
{ "type": "Feature", "properties": { "CID_MUN_CD": 2111250, "CID_NM": "São José dos Basílios", "CID_SG_UF": "MA", "CID_NU_IBG": "211125005", "CID_GM_PON": null, "CIDADE_TP": null, "lat_cid": -5.05230494, "long_cid": -44.5854314 }, "geometry": { "type": "Point", "coordinates": [ -44.585431, -5.052305, 0.0 ] } },
{ "type": "Feature", "properties": { "CID_MUN_CD": 2106359, "CID_NM": "Marajá do Sena", "CID_SG_UF": "MA", "CID_NU_IBG": "210635905", "CID_GM_PON": null, "CIDADE_TP": null, "lat_cid": -4.6288354, "long_cid": -45.4568345 }, "geometry": { "type": "Point", "coordinates": [ -45.456834, -4.628835, 0.0 ] } },
{ "type": "Feature", "properties": { "CID_MUN_CD": 2105609, "CID_NM": "Joselândia", "CID_SG_UF": "MA", "CID_NU_IBG": "210560905", "CID_GM_PON": null, "CIDADE_TP": null, "lat_cid": -4.98719614, "long_cid": -44.6974093 }, "geometry": { "type": "Point", "coordinates": [ -44.697409, -4.987196, 0.0 ] } },
{ "type": "Feature", "properties": { "CID_MUN_CD": 2112100, "CID_NM": "Timbiras", "CID_SG_UF": "MA", "CID_NU_IBG": "211210005", "CID_GM_PON": null, "CIDADE_TP": null, "lat_cid": -4.25629296, "long_cid": -43.9405315 }, "geometry": { "type": "Point", "coordinates": [ -43.940532, -4.256293, 0.0 ] } },
{ "type": "Feature", "properties": { "CID_MUN_CD": 2109304, "CID_NM": "Presidente Vargas", "CID_SG_UF": "MA", "CID_NU_IBG": "210930405", "CID_GM_PON": null, "CIDADE_TP": null, "lat_cid": -3.40635013, "long_cid": -44.0270643 }, "geometry": { "type": "Point", "coordinates": [ -44.027064, -3.40635, 0.0 ] } },
{ "type": "Feature", "properties": { "CID_MUN_CD": 2111672, "CID_NM": "São Roberto", "CID_SG_UF": "MA", "CID_NU_IBG": "211167205", "CID_GM_PON": null, "CIDADE_TP": null, "lat_cid": -5.02272154, "long_cid": -44.9927069 }, "geometry": { "type": "Point", "coordinates": [ -44.992707, -5.022722, 0.0 ] } },
{ "type": "Feature", "properties": { "CID_MUN_CD": 2108405, "CID_NM": "Peri Mirim", "CID_SG_UF": "MA", "CID_NU_IBG": "210840505", "CID_GM_PON": null, "CIDADE_TP": null, "lat_cid": -2.57777241, "long_cid": -44.8549776 }, "geometry": { "type": "Point", "coordinates": [ -44.854978, -2.577772, 0.0 ] } },
{ "type": "Feature", "properties": { "CID_MUN_CD": 2101251, "CID_NM": "Bacabeira", "CID_SG_UF": "MA", "CID_NU_IBG": "210125105", "CID_GM_PON": null, "CIDADE_TP": null, "lat_cid": -2.97648408, "long_cid": -44.3142887 }, "geometry": { "type": "Point", "coordinates": [ -44.314289, -2.976484, 0.0 ] } },
{ "type": "Feature", "properties": { "CID_MUN_CD": 2111748, "CID_NM": "Senador Alexandre Costa", "CID_SG_UF": "MA", "CID_NU_IBG": "211174805", "CID_GM_PON": null, "CIDADE_TP": null, "lat_cid": -5.26003267, "long_cid": -44.0553273 }, "geometry": { "type": "Point", "coordinates": [ -44.055327, -5.260033, 0.0 ] } },
{ "type": "Feature", "properties": { "CID_MUN_CD": 2112852, "CID_NM": "Vila Nova dos Martírios", "CID_SG_UF": "MA", "CID_NU_IBG": "211285205", "CID_GM_PON": null, "CIDADE_TP": null, "lat_cid": -5.18195293, "long_cid": -48.1380626 }, "geometry": { "type": "Point", "coordinates": [ -48.138063, -5.181953, 0.0 ] } },
{ "type": "Feature", "properties": { "CID_MUN_CD": 2105203, "CID_NM": "Igarapé Grande", "CID_SG_UF": "MA", "CID_NU_IBG": "210520305", "CID_GM_PON": null, "CIDADE_TP": null, "lat_cid": -4.66396987, "long_cid": -44.854265 }, "geometry": { "type": "Point", "coordinates": [ -44.854265, -4.66397, 0.0 ] } },
{ "type": "Feature", "properties": { "CID_MUN_CD": 2101350, "CID_NM": "Bacurituba", "CID_SG_UF": "MA", "CID_NU_IBG": "210135005", "CID_GM_PON": null, "CIDADE_TP": null, "lat_cid": -2.70775289, "long_cid": -44.7380253 }, "geometry": { "type": "Point", "coordinates": [ -44.738025, -2.707753, 0.0 ] } },
{ "type": "Feature", "properties": { "CID_MUN_CD": 2105807, "CID_NM": "Lago do Junco", "CID_SG_UF": "MA", "CID_NU_IBG": "210580705", "CID_GM_PON": null, "CIDADE_TP": null, "lat_cid": -4.60769628, "long_cid": -45.0566857 }, "geometry": { "type": "Point", "coordinates": [ -45.056686, -4.607696, 0.0 ] } },
{ "type": "Feature", "properties": { "CID_MUN_CD": 2102358, "CID_NM": "Buritirana", "CID_SG_UF": "MA", "CID_NU_IBG": "210235805", "CID_GM_PON": null, "CIDADE_TP": null, "lat_cid": -5.59234344, "long_cid": -47.0163553 }, "geometry": { "type": "Point", "coordinates": [ -47.016355, -5.592343, 0.0 ] } },
{ "type": "Feature", "properties": { "CID_MUN_CD": 2105906, "CID_NM": "Lago Verde", "CID_SG_UF": "MA", "CID_NU_IBG": "210590605", "CID_GM_PON": null, "CIDADE_TP": null, "lat_cid": -4.04265502, "long_cid": -44.9379036 }, "geometry": { "type": "Point", "coordinates": [ -44.937904, -4.042655, 0.0 ] } },
{ "type": "Feature", "properties": { "CID_MUN_CD": 2105708, "CID_NM": "Lago da Pedra", "CID_SG_UF": "MA", "CID_NU_IBG": "210570805", "CID_GM_PON": null, "CIDADE_TP": null, "lat_cid": -4.55856357, "long_cid": -45.134752 }, "geometry": { "type": "Point", "coordinates": [ -45.134752, -4.558564, 0.0 ] } },
{ "type": "Feature", "properties": { "CID_MUN_CD": 2104909, "CID_NM": "Guimarães", "CID_SG_UF": "MA", "CID_NU_IBG": "210490905", "CID_GM_PON": null, "CIDADE_TP": null, "lat_cid": -2.13442283, "long_cid": -44.6056409 }, "geometry": { "type": "Point", "coordinates": [ -44.605641, -2.134423, 0.0 ] } },
{ "type": "Feature", "properties": { "CID_MUN_CD": 2109759, "CID_NM": "Santa Filomena do Maranhão", "CID_SG_UF": "MA", "CID_NU_IBG": "210975905", "CID_GM_PON": null, "CIDADE_TP": null, "lat_cid": -5.49806147, "long_cid": -44.5591138 }, "geometry": { "type": "Point", "coordinates": [ -44.559114, -5.498061, 0.0 ] } },
{ "type": "Feature", "properties": { "CID_MUN_CD": 2107001, "CID_NM": "Montes Altos", "CID_SG_UF": "MA", "CID_NU_IBG": "210700105", "CID_GM_PON": null, "CIDADE_TP": null, "lat_cid": -5.83300984, "long_cid": -47.0673241 }, "geometry": { "type": "Point", "coordinates": [ -47.067324, -5.83301, 0.0 ] } },
{ "type": "Feature", "properties": { "CID_MUN_CD": 2105104, "CID_NM": "Icatu", "CID_SG_UF": "MA", "CID_NU_IBG": "210510405", "CID_GM_PON": null, "CIDADE_TP": null, "lat_cid": -2.77483971, "long_cid": -44.0617478 }, "geometry": { "type": "Point", "coordinates": [ -44.061748, -2.77484, 0.0 ] } },
{ "type": "Feature", "properties": { "CID_MUN_CD": 2107407, "CID_NM": "Olho d'Água das Cunhãs", "CID_SG_UF": "MA", "CID_NU_IBG": "210740705", "CID_GM_PON": null, "CIDADE_TP": null, "lat_cid": -4.13753661, "long_cid": -45.1191367 }, "geometry": { "type": "Point", "coordinates": [ -45.119137, -4.137537, 0.0 ] } },
{ "type": "Feature", "properties": { "CID_MUN_CD": 2105948, "CID_NM": "Lago dos Rodrigues", "CID_SG_UF": "MA", "CID_NU_IBG": "210594805", "CID_GM_PON": null, "CIDADE_TP": null, "lat_cid": -4.61317909, "long_cid": -44.9799746 }, "geometry": { "type": "Point", "coordinates": [ -44.979975, -4.613179, 0.0 ] } },
{ "type": "Feature", "properties": { "CID_MUN_CD": 2103604, "CID_NM": "Coroatá", "CID_SG_UF": "MA", "CID_NU_IBG": "210360405", "CID_GM_PON": null, "CIDADE_TP": null, "lat_cid": -4.13140908, "long_cid": -44.1250358 }, "geometry": { "type": "Point", "coordinates": [ -44.125036, -4.131409, 0.0 ] } },
{ "type": "Feature", "properties": { "CID_MUN_CD": 2102374, "CID_NM": "Cachoeira Grande", "CID_SG_UF": "MA", "CID_NU_IBG": "210237405", "CID_GM_PON": null, "CIDADE_TP": null, "lat_cid": -2.92868388, "long_cid": -44.0526356 }, "geometry": { "type": "Point", "coordinates": [ -44.052636, -2.928684, 0.0 ] } },
{ "type": "Feature", "properties": { "CID_MUN_CD": 2109700, "CID_NM": "Sambaíba", "CID_SG_UF": "MA", "CID_NU_IBG": "210970005", "CID_GM_PON": null, "CIDADE_TP": null, "lat_cid": -7.14087948, "long_cid": -45.3465484 }, "geometry": { "type": "Point", "coordinates": [ -45.346548, -7.140879, 0.0 ] } },
{ "type": "Feature", "properties": { "CID_MUN_CD": 2111078, "CID_NM": "São João do Soter", "CID_SG_UF": "MA", "CID_NU_IBG": "211107805", "CID_GM_PON": null, "CIDADE_TP": null, "lat_cid": -5.11598657, "long_cid": -43.8112335 }, "geometry": { "type": "Point", "coordinates": [ -43.811234, -5.115987, 0.0 ] } },
{ "type": "Feature", "properties": { "CID_MUN_CD": 2104206, "CID_NM": "Fortuna", "CID_SG_UF": "MA", "CID_NU_IBG": "210420605", "CID_GM_PON": null, "CIDADE_TP": null, "lat_cid": -5.73224566, "long_cid": -44.151619 }, "geometry": { "type": "Point", "coordinates": [ -44.151619, -5.732246, 0.0 ] } },
{ "type": "Feature", "properties": { "CID_MUN_CD": 2106805, "CID_NM": "Mirinzal", "CID_SG_UF": "MA", "CID_NU_IBG": "210680505", "CID_GM_PON": null, "CIDADE_TP": null, "lat_cid": -2.06717387, "long_cid": -44.7847317 }, "geometry": { "type": "Point", "coordinates": [ -44.784732, -2.067174, 0.0 ] } },
{ "type": "Feature", "properties": { "CID_MUN_CD": 2103752, "CID_NM": "Davinópolis", "CID_SG_UF": "MA", "CID_NU_IBG": "210375205", "CID_GM_PON": null, "CIDADE_TP": null, "lat_cid": -5.52564509, "long_cid": -47.3914506 }, "geometry": { "type": "Point", "coordinates": [ -47.391451, -5.525645, 0.0 ] } },
{ "type": "Feature", "properties": { "CID_MUN_CD": 2106102, "CID_NM": "Loreto", "CID_SG_UF": "MA", "CID_NU_IBG": "210610205", "CID_GM_PON": null, "CIDADE_TP": null, "lat_cid": -7.0864018, "long_cid": -45.1389496 }, "geometry": { "type": "Point", "coordinates": [ -45.13895, -7.086402, 0.0 ] } },
{ "type": "Feature", "properties": { "CID_MUN_CD": 2112902, "CID_NM": "Vitória do Mearim", "CID_SG_UF": "MA", "CID_NU_IBG": "211290205", "CID_GM_PON": null, "CIDADE_TP": null, "lat_cid": -3.46723446, "long_cid": -44.8721298 }, "geometry": { "type": "Point", "coordinates": [ -44.87213, -3.467234, 0.0 ] } },
{ "type": "Feature", "properties": { "CID_MUN_CD": 2104404, "CID_NM": "Gonçalves Dias", "CID_SG_UF": "MA", "CID_NU_IBG": "210440405", "CID_GM_PON": null, "CIDADE_TP": null, "lat_cid": -5.15391948, "long_cid": -44.299752 }, "geometry": { "type": "Point", "coordinates": [ -44.299752, -5.153919, 0.0 ] } },
{ "type": "Feature", "properties": { "CID_MUN_CD": 2104073, "CID_NM": "Feira Nova do Maranhão", "CID_SG_UF": "MA", "CID_NU_IBG": "210407305", "CID_GM_PON": null, "CIDADE_TP": null, "lat_cid": -6.96242888, "long_cid": -46.6820048 }, "geometry": { "type": "Point", "coordinates": [ -46.682005, -6.962429, 0.0 ] } },
{ "type": "Feature", "properties": { "CID_MUN_CD": 2105427, "CID_NM": "Itinga do Maranhão", "CID_SG_UF": "MA", "CID_NU_IBG": "210542705", "CID_GM_PON": null, "CIDADE_TP": null, "lat_cid": -4.45559188, "long_cid": -47.5303098 }, "geometry": { "type": "Point", "coordinates": [ -47.53031, -4.455592, 0.0 ] } },
{ "type": "Feature", "properties": { "CID_MUN_CD": 2102705, "CID_NM": "Cantanhede", "CID_SG_UF": "MA", "CID_NU_IBG": "210270505", "CID_GM_PON": null, "CIDADE_TP": null, "lat_cid": -3.63444559, "long_cid": -44.3806561 }, "geometry": { "type": "Point", "coordinates": [ -44.380656, -3.634446, 0.0 ] } },
{ "type": "Feature", "properties": { "CID_MUN_CD": 2102036, "CID_NM": "Bom Jesus das Selvas", "CID_SG_UF": "MA", "CID_NU_IBG": "210203605", "CID_GM_PON": null, "CIDADE_TP": null, "lat_cid": -4.48356792, "long_cid": -46.8536314 }, "geometry": { "type": "Point", "coordinates": [ -46.853631, -4.483568, 0.0 ] } },
{ "type": "Feature", "properties": { "CID_MUN_CD": 2111508, "CID_NM": "São Mateus do Maranhão", "CID_SG_UF": "MA", "CID_NU_IBG": "211150805", "CID_GM_PON": null, "CIDADE_TP": null, "lat_cid": -4.03152793, "long_cid": -44.4680932 }, "geometry": { "type": "Point", "coordinates": [ -44.468093, -4.031528, 0.0 ] } },
{ "type": "Feature", "properties": { "CID_MUN_CD": 2102754, "CID_NM": "Capinzal do Norte", "CID_SG_UF": "MA", "CID_NU_IBG": "210275405", "CID_GM_PON": null, "CIDADE_TP": null, "lat_cid": -4.72918039, "long_cid": -44.3279453 }, "geometry": { "type": "Point", "coordinates": [ -44.327945, -4.72918, 0.0 ] } },
{ "type": "Feature", "properties": { "CID_MUN_CD": 2104800, "CID_NM": "Grajaú", "CID_SG_UF": "MA", "CID_NU_IBG": "210480005", "CID_GM_PON": null, "CIDADE_TP": null, "lat_cid": -5.82015481, "long_cid": -46.1558934 }, "geometry": { "type": "Point", "coordinates": [ -46.155893, -5.820155, 0.0 ] } },
{ "type": "Feature", "properties": { "CID_MUN_CD": 2102556, "CID_NM": "Campestre do Maranhão", "CID_SG_UF": "MA", "CID_NU_IBG": "210255605", "CID_GM_PON": null, "CIDADE_TP": null, "lat_cid": -6.17383905, "long_cid": -47.3658192 }, "geometry": { "type": "Point", "coordinates": [ -47.365819, -6.173839, 0.0 ] } },
{ "type": "Feature", "properties": { "CID_MUN_CD": 2103257, "CID_NM": "Cidelândia", "CID_SG_UF": "MA", "CID_NU_IBG": "210325705", "CID_GM_PON": null, "CIDADE_TP": null, "lat_cid": -5.17721838, "long_cid": -47.7838244 }, "geometry": { "type": "Point", "coordinates": [ -47.783824, -5.177218, 0.0 ] } },
{ "type": "Feature", "properties": { "CID_MUN_CD": 2104628, "CID_NM": "Governador Luiz Rocha", "CID_SG_UF": "MA", "CID_NU_IBG": "210462805", "CID_GM_PON": null, "CIDADE_TP": null, "lat_cid": -5.47230632, "long_cid": -44.0702843 }, "geometry": { "type": "Point", "coordinates": [ -44.070284, -5.472306, 0.0 ] } },
{ "type": "Feature", "properties": { "CID_MUN_CD": 2103109, "CID_NM": "Cedral", "CID_SG_UF": "MA", "CID_NU_IBG": "210310905", "CID_GM_PON": null, "CIDADE_TP": null, "lat_cid": -1.99911398, "long_cid": -44.5779085 }, "geometry": { "type": "Point", "coordinates": [ -44.577908, -1.999114, 0.0 ] } },
{ "type": "Feature", "properties": { "CID_MUN_CD": 2105153, "CID_NM": "Igarapé do Meio", "CID_SG_UF": "MA", "CID_NU_IBG": "210515305", "CID_GM_PON": null, "CIDADE_TP": null, "lat_cid": -3.63982451, "long_cid": -45.1891818 }, "geometry": { "type": "Point", "coordinates": [ -45.189182, -3.639825, 0.0 ] } },
{ "type": "Feature", "properties": { "CID_MUN_CD": 2111029, "CID_NM": "São João do Carú", "CID_SG_UF": "MA", "CID_NU_IBG": "211102905", "CID_GM_PON": null, "CIDADE_TP": null, "lat_cid": -3.55521122, "long_cid": -46.2580249 }, "geometry": { "type": "Point", "coordinates": [ -46.258025, -3.555211, 0.0 ] } },
{ "type": "Feature", "properties": { "CID_MUN_CD": 2103703, "CID_NM": "Cururupu", "CID_SG_UF": "MA", "CID_NU_IBG": "210370305", "CID_GM_PON": null, "CIDADE_TP": null, "lat_cid": -1.82304752, "long_cid": -44.8681916 }, "geometry": { "type": "Point", "coordinates": [ -44.868192, -1.823048, 0.0 ] } },
{ "type": "Feature", "properties": { "CID_MUN_CD": 2108306, "CID_NM": "Penalva", "CID_SG_UF": "MA", "CID_NU_IBG": "210830605", "CID_GM_PON": null, "CIDADE_TP": null, "lat_cid": -3.2898961, "long_cid": -45.1742793 }, "geometry": { "type": "Point", "coordinates": [ -45.174279, -3.289896, 0.0 ] } },
{ "type": "Feature", "properties": { "CID_MUN_CD": 2111789, "CID_NM": "Serrano do Maranhão", "CID_SG_UF": "MA", "CID_NU_IBG": "211178905", "CID_GM_PON": null, "CIDADE_TP": null, "lat_cid": -1.8552882, "long_cid": -45.1187327 }, "geometry": { "type": "Point", "coordinates": [ -45.118733, -1.855288, 0.0 ] } },
{ "type": "Feature", "properties": { "CID_MUN_CD": 2102507, "CID_NM": "Cajari", "CID_SG_UF": "MA", "CID_NU_IBG": "210250705", "CID_GM_PON": null, "CIDADE_TP": null, "lat_cid": -3.32108001, "long_cid": -45.0120271 }, "geometry": { "type": "Point", "coordinates": [ -45.012027, -3.32108, 0.0 ] } },
{ "type": "Feature", "properties": { "CID_MUN_CD": 2100550, "CID_NM": "Amapá do Maranhão", "CID_SG_UF": "MA", "CID_NU_IBG": "210055005", "CID_GM_PON": null, "CIDADE_TP": null, "lat_cid": -1.67593763, "long_cid": -46.0132271 }, "geometry": { "type": "Point", "coordinates": [ -46.013227, -1.675938, 0.0 ] } },
{ "type": "Feature", "properties": { "CID_MUN_CD": 2101301, "CID_NM": "Bacuri", "CID_SG_UF": "MA", "CID_NU_IBG": "210130105", "CID_GM_PON": null, "CIDADE_TP": null, "lat_cid": -1.72571315, "long_cid": -45.1400103 }, "geometry": { "type": "Point", "coordinates": [ -45.14001, -1.725713, 0.0 ] } },
{ "type": "Feature", "properties": { "CID_MUN_CD": 2106904, "CID_NM": "Monção", "CID_SG_UF": "MA", "CID_NU_IBG": "210690405", "CID_GM_PON": null, "CIDADE_TP": null, "lat_cid": -3.48445206, "long_cid": -45.2499501 }, "geometry": { "type": "Point", "coordinates": [ -45.24995, -3.484452, 0.0 ] } },
{ "type": "Feature", "properties": { "CID_MUN_CD": 2109809, "CID_NM": "Santa Helena", "CID_SG_UF": "MA", "CID_NU_IBG": "210980905", "CID_GM_PON": null, "CIDADE_TP": null, "lat_cid": -2.23395351, "long_cid": -45.3011155 }, "geometry": { "type": "Point", "coordinates": [ -45.301116, -2.233954, 0.0 ] } },
{ "type": "Feature", "properties": { "CID_MUN_CD": 2112456, "CID_NM": "Turilândia", "CID_SG_UF": "MA", "CID_NU_IBG": "211245605", "CID_GM_PON": null, "CIDADE_TP": null, "lat_cid": -2.22036026, "long_cid": -45.3066973 }, "geometry": { "type": "Point", "coordinates": [ -45.306697, -2.22036, 0.0 ] } },
{ "type": "Feature", "properties": { "CID_MUN_CD": 2109056, "CID_NM": "Porto Rico do Maranhão", "CID_SG_UF": "MA", "CID_NU_IBG": "210905605", "CID_GM_PON": null, "CIDADE_TP": null, "lat_cid": -1.86236117, "long_cid": -44.5955883 }, "geometry": { "type": "Point", "coordinates": [ -44.595588, -1.862361, 0.0 ] } },
{ "type": "Feature", "properties": { "CID_MUN_CD": 2103174, "CID_NM": "Centro Novo do Maranhão", "CID_SG_UF": "MA", "CID_NU_IBG": "210317405", "CID_GM_PON": null, "CIDADE_TP": null, "lat_cid": -2.1409333, "long_cid": -46.1233794 }, "geometry": { "type": "Point", "coordinates": [ -46.123379, -2.140933, 0.0 ] } },
{ "type": "Feature", "properties": { "CID_MUN_CD": 2103158, "CID_NM": "Centro do Guilherme", "CID_SG_UF": "MA", "CID_NU_IBG": "210315805", "CID_GM_PON": null, "CIDADE_TP": null, "lat_cid": -2.45052074, "long_cid": -46.0387055 }, "geometry": { "type": "Point", "coordinates": [ -46.038705, -2.450521, 0.0 ] } },
{ "type": "Feature", "properties": { "CID_MUN_CD": 2108504, "CID_NM": "Pindaré-Mirim", "CID_SG_UF": "MA", "CID_NU_IBG": "210850405", "CID_GM_PON": null, "CIDADE_TP": null, "lat_cid": -3.61464157, "long_cid": -45.3390206 }, "geometry": { "type": "Point", "coordinates": [ -45.339021, -3.614642, 0.0 ] } },
{ "type": "Feature", "properties": { "CID_MUN_CD": 2109270, "CID_NM": "Presidente Sarney", "CID_SG_UF": "MA", "CID_NU_IBG": "210927005", "CID_GM_PON": null, "CIDADE_TP": null, "lat_cid": -2.59179615, "long_cid": -45.3630936 }, "geometry": { "type": "Point", "coordinates": [ -45.363094, -2.591796, 0.0 ] } },
{ "type": "Feature", "properties": { "CID_MUN_CD": 2110005, "CID_NM": "Santa Luzia", "CID_SG_UF": "MA", "CID_NU_IBG": "211000505", "CID_GM_PON": null, "CIDADE_TP": null, "lat_cid": -3.9672954, "long_cid": -45.6633007 }, "geometry": { "type": "Point", "coordinates": [ -45.663301, -3.967295, 0.0 ] } },
{ "type": "Feature", "properties": { "CID_MUN_CD": 2106326, "CID_NM": "Maracaçumé", "CID_SG_UF": "MA", "CID_NU_IBG": "210632605", "CID_GM_PON": null, "CIDADE_TP": null, "lat_cid": -2.04746124, "long_cid": -45.9608452 }, "geometry": { "type": "Point", "coordinates": [ -45.960845, -2.047461, 0.0 ] } },
{ "type": "Feature", "properties": { "CID_MUN_CD": 2102903, "CID_NM": "Carutapera", "CID_SG_UF": "MA", "CID_NU_IBG": "210290305", "CID_GM_PON": null, "CIDADE_TP": null, "lat_cid": -1.20126658, "long_cid": -46.0188689 }, "geometry": { "type": "Point", "coordinates": [ -46.018869, -1.201267, 0.0 ] } },
{ "type": "Feature", "properties": { "CID_MUN_CD": 2104305, "CID_NM": "Godofredo Viana", "CID_SG_UF": "MA", "CID_NU_IBG": "210430505", "CID_GM_PON": null, "CIDADE_TP": null, "lat_cid": -1.41214384, "long_cid": -45.7735304 }, "geometry": { "type": "Point", "coordinates": [ -45.77353, -1.412144, 0.0 ] } },
{ "type": "Feature", "properties": { "CID_MUN_CD": 2101772, "CID_NM": "Bela Vista do Maranhão", "CID_SG_UF": "MA", "CID_NU_IBG": "210177205", "CID_GM_PON": null, "CIDADE_TP": null, "lat_cid": -3.74115695, "long_cid": -45.2525598 }, "geometry": { "type": "Point", "coordinates": [ -45.25256, -3.741157, 0.0 ] } },
{ "type": "Feature", "properties": { "CID_MUN_CD": 2105658, "CID_NM": "Junco do Maranhão", "CID_SG_UF": "MA", "CID_NU_IBG": "210565805", "CID_GM_PON": null, "CIDADE_TP": null, "lat_cid": -1.87830394, "long_cid": -46.0713327 }, "geometry": { "type": "Point", "coordinates": [ -46.071333, -1.878304, 0.0 ] } },
{ "type": "Feature", "properties": { "CID_MUN_CD": 2100873, "CID_NM": "Araguanã", "CID_SG_UF": "MA", "CID_NU_IBG": "210087305", "CID_GM_PON": null, "CIDADE_TP": null, "lat_cid": -2.95067771, "long_cid": -45.6655158 }, "geometry": { "type": "Point", "coordinates": [ -45.665516, -2.950678, 0.0 ] } },
{ "type": "Feature", "properties": { "CID_MUN_CD": 2109908, "CID_NM": "Santa Inês", "CID_SG_UF": "MA", "CID_NU_IBG": "210990805", "CID_GM_PON": null, "CIDADE_TP": null, "lat_cid": -3.66277913, "long_cid": -45.3826507 }, "geometry": { "type": "Point", "coordinates": [ -45.382651, -3.662779, 0.0 ] } },
{ "type": "Feature", "properties": { "CID_MUN_CD": 2108256, "CID_NM": "Pedro do Rosário", "CID_SG_UF": "MA", "CID_NU_IBG": "210825605", "CID_GM_PON": null, "CIDADE_TP": null, "lat_cid": -2.96916333, "long_cid": -45.3486225 }, "geometry": { "type": "Point", "coordinates": [ -45.348623, -2.969163, 0.0 ] } },
{ "type": "Feature", "properties": { "CID_MUN_CD": 2114007, "CID_NM": "Zé Doca", "CID_SG_UF": "MA", "CID_NU_IBG": "211400705", "CID_GM_PON": null, "CIDADE_TP": null, "lat_cid": -3.27885502, "long_cid": -45.6539866 }, "geometry": { "type": "Point", "coordinates": [ -45.653987, -3.278855, 0.0 ] } },
{ "type": "Feature", "properties": { "CID_MUN_CD": 2112803, "CID_NM": "Viana", "CID_SG_UF": "MA", "CID_NU_IBG": "211280305", "CID_GM_PON": null, "CIDADE_TP": null, "lat_cid": -3.21104593, "long_cid": -45.0022335 }, "geometry": { "type": "Point", "coordinates": [ -45.002234, -3.211046, 0.0 ] } },
{ "type": "Feature", "properties": { "CID_MUN_CD": 2104677, "CID_NM": "Governador Nunes Freire", "CID_SG_UF": "MA", "CID_NU_IBG": "210467705", "CID_GM_PON": null, "CIDADE_TP": null, "lat_cid": -2.12902408, "long_cid": -45.8913652 }, "geometry": { "type": "Point", "coordinates": [ -45.891365, -2.129024, 0.0 ] } },
{ "type": "Feature", "properties": { "CID_MUN_CD": 2104651, "CID_NM": "Governador Newton Bello", "CID_SG_UF": "MA", "CID_NU_IBG": "210465105", "CID_GM_PON": null, "CIDADE_TP": null, "lat_cid": -3.42686307, "long_cid": -45.6712946 }, "geometry": { "type": "Point", "coordinates": [ -45.671295, -3.426863, 0.0 ] } },
{ "type": "Feature", "properties": { "CID_MUN_CD": 2102002, "CID_NM": "Bom Jardim", "CID_SG_UF": "MA", "CID_NU_IBG": "210200205", "CID_GM_PON": null, "CIDADE_TP": null, "lat_cid": -3.54485404, "long_cid": -45.6075413 }, "geometry": { "type": "Point", "coordinates": [ -45.607541, -3.544854, 0.0 ] } },
{ "type": "Feature", "properties": { "CID_MUN_CD": 2102606, "CID_NM": "Cândido Mendes", "CID_SG_UF": "MA", "CID_NU_IBG": "210260605", "CID_GM_PON": null, "CIDADE_TP": null, "lat_cid": -1.45190069, "long_cid": -45.7277426 }, "geometry": { "type": "Point", "coordinates": [ -45.727743, -1.451901, 0.0 ] } },
{ "type": "Feature", "properties": { "CID_MUN_CD": 2106201, "CID_NM": "Luís Domingues", "CID_SG_UF": "MA", "CID_NU_IBG": "210620105", "CID_GM_PON": null, "CIDADE_TP": null, "lat_cid": -1.3304012, "long_cid": -45.8984026 }, "geometry": { "type": "Point", "coordinates": [ -45.898403, -1.330401, 0.0 ] } },
{ "type": "Feature", "properties": { "CID_MUN_CD": 2100832, "CID_NM": "Apicum-Açu", "CID_SG_UF": "MA", "CID_NU_IBG": "210083205", "CID_GM_PON": null, "CIDADE_TP": null, "lat_cid": -1.52435085, "long_cid": -45.0768222 }, "geometry": { "type": "Point", "coordinates": [ -45.076822, -1.524351, 0.0 ] } },
{ "type": "Feature", "properties": { "CID_MUN_CD": 2112407, "CID_NM": "Turiaçu", "CID_SG_UF": "MA", "CID_NU_IBG": "211240705", "CID_GM_PON": null, "CIDADE_TP": null, "lat_cid": -1.66559637, "long_cid": -45.3704516 }, "geometry": { "type": "Point", "coordinates": [ -45.370452, -1.665596, 0.0 ] } },
{ "type": "Feature", "properties": { "CID_MUN_CD": 2106375, "CID_NM": "Maranhãozinho", "CID_SG_UF": "MA", "CID_NU_IBG": "210637505", "CID_GM_PON": null, "CIDADE_TP": null, "lat_cid": -2.24107393, "long_cid": -45.8575271 }, "geometry": { "type": "Point", "coordinates": [ -45.857527, -2.241074, 0.0 ] } },
{ "type": "Feature", "properties": { "CID_MUN_CD": 2101970, "CID_NM": "Boa Vista do Gurupi", "CID_SG_UF": "MA", "CID_NU_IBG": "210197005", "CID_GM_PON": null, "CIDADE_TP": null, "lat_cid": -1.79957615, "long_cid": -46.307536 }, "geometry": { "type": "Point", "coordinates": [ -46.307536, -1.799576, 0.0 ] } },
{ "type": "Feature", "properties": { "CID_MUN_CD": 2106508, "CID_NM": "Matinha", "CID_SG_UF": "MA", "CID_NU_IBG": "210650805", "CID_GM_PON": null, "CIDADE_TP": null, "lat_cid": -3.09870117, "long_cid": -45.0323826 }, "geometry": { "type": "Point", "coordinates": [ -45.032383, -3.098701, 0.0 ] } },
{ "type": "Feature", "properties": { "CID_MUN_CD": 2100477, "CID_NM": "Alto Alegre do Pindaré", "CID_SG_UF": "MA", "CID_NU_IBG": "210047705", "CID_GM_PON": null, "CIDADE_TP": null, "lat_cid": -3.66775378, "long_cid": -45.845933 }, "geometry": { "type": "Point", "coordinates": [ -45.845933, -3.667754, 0.0 ] } },
{ "type": "Feature", "properties": { "CID_MUN_CD": 2109239, "CID_NM": "Presidente Médici", "CID_SG_UF": "MA", "CID_NU_IBG": "210923905", "CID_GM_PON": null, "CIDADE_TP": null, "lat_cid": -2.37600535, "long_cid": -45.8237061 }, "geometry": { "type": "Point", "coordinates": [ -45.823706, -2.376005, 0.0 ] } },
{ "type": "Feature", "properties": { "CID_MUN_CD": 2108603, "CID_NM": "Pinheiro", "CID_SG_UF": "MA", "CID_NU_IBG": "210860305", "CID_GM_PON": null, "CIDADE_TP": null, "lat_cid": -2.52701305, "long_cid": -45.0886484 }, "geometry": { "type": "Point", "coordinates": [ -45.088648, -2.527013, 0.0 ] } },
{ "type": "Feature", "properties": { "CID_MUN_CD": 2108702, "CID_NM": "Pio XII", "CID_SG_UF": "MA", "CID_NU_IBG": "210870205", "CID_GM_PON": null, "CIDADE_TP": null, "lat_cid": -3.89148669, "long_cid": -45.1706868 }, "geometry": { "type": "Point", "coordinates": [ -45.170687, -3.891487, 0.0 ] } },
{ "type": "Feature", "properties": { "CID_MUN_CD": 2112274, "CID_NM": "Tufilândia", "CID_SG_UF": "MA", "CID_NU_IBG": "211227405", "CID_GM_PON": null, "CIDADE_TP": null, "lat_cid": -3.67347707, "long_cid": -45.6350101 }, "geometry": { "type": "Point", "coordinates": [ -45.63501, -3.673477, 0.0 ] } },
{ "type": "Feature", "properties": { "CID_MUN_CD": 2107357, "CID_NM": "Nova Olinda do Maranhão", "CID_SG_UF": "MA", "CID_NU_IBG": "210735705", "CID_GM_PON": null, "CIDADE_TP": null, "lat_cid": -2.80626887, "long_cid": -45.7024434 }, "geometry": { "type": "Point", "coordinates": [ -45.702443, -2.806269, 0.0 ] } },
{ "type": "Feature", "properties": { "CID_MUN_CD": 2110039, "CID_NM": "Santa Luzia do Paruá", "CID_SG_UF": "MA", "CID_NU_IBG": "211003905", "CID_GM_PON": null, "CIDADE_TP": null, "lat_cid": -2.54421056, "long_cid": -45.7751265 }, "geometry": { "type": "Point", "coordinates": [ -45.775127, -2.544211, 0.0 ] } },
{ "type": "Feature", "properties": { "CID_MUN_CD": 2103000, "CID_NM": "Caxias", "CID_SG_UF": "MA", "CID_NU_IBG": "210300005", "CID_GM_PON": null, "CIDADE_TP": null, "lat_cid": -4.87952164, "long_cid": -43.3460472 }, "geometry": { "type": "Point", "coordinates": [ -43.346047, -4.879522, 0.0 ] } },
{ "type": "Feature", "properties": { "CID_MUN_CD": 2101509, "CID_NM": "Barão de Grajaú", "CID_SG_UF": "MA", "CID_NU_IBG": "210150905", "CID_GM_PON": null, "CIDADE_TP": null, "lat_cid": -6.75642841, "long_cid": -43.0269432 }, "geometry": { "type": "Point", "coordinates": [ -43.026943, -6.756428, 0.0 ] } },
{ "type": "Feature", "properties": { "CID_MUN_CD": 2106672, "CID_NM": "Milagres do Maranhão", "CID_SG_UF": "MA", "CID_NU_IBG": "210667205", "CID_GM_PON": null, "CIDADE_TP": null, "lat_cid": -3.58218492, "long_cid": -42.6072724 }, "geometry": { "type": "Point", "coordinates": [ -42.607272, -3.582185, 0.0 ] } },
{ "type": "Feature", "properties": { "CID_MUN_CD": 2110104, "CID_NM": "Santa Quitéria do Maranhão", "CID_SG_UF": "MA", "CID_NU_IBG": "211010405", "CID_GM_PON": null, "CIDADE_TP": null, "lat_cid": -3.49852285, "long_cid": -42.5605481 }, "geometry": { "type": "Point", "coordinates": [ -42.560548, -3.498523, 0.0 ] } },
{ "type": "Feature", "properties": { "CID_MUN_CD": 2111532, "CID_NM": "São Pedro da Água Branca", "CID_SG_UF": "MA", "CID_NU_IBG": "211153205", "CID_GM_PON": null, "CIDADE_TP": null, "lat_cid": -5.08352406, "long_cid": -48.4288616 }, "geometry": { "type": "Point", "coordinates": [ -48.428862, -5.083524, 0.0 ] } },
{ "type": "Feature", "properties": { "CID_MUN_CD": 2103307, "CID_NM": "Codó", "CID_SG_UF": "MA", "CID_NU_IBG": "210330705", "CID_GM_PON": null, "CIDADE_TP": null, "lat_cid": -4.45697973, "long_cid": -43.89257 }, "geometry": { "type": "Point", "coordinates": [ -43.89257, -4.45698, 0.0 ] } },
{ "type": "Feature", "properties": { "CID_MUN_CD": 2104503, "CID_NM": "Governador Archer", "CID_SG_UF": "MA", "CID_NU_IBG": "210450305", "CID_GM_PON": null, "CIDADE_TP": null, "lat_cid": -5.02478548, "long_cid": -44.2704633 }, "geometry": { "type": "Point", "coordinates": [ -44.270463, -5.024785, 0.0 ] } },
{ "type": "Feature", "properties": { "CID_MUN_CD": 2106755, "CID_NM": "Miranda do Norte", "CID_SG_UF": "MA", "CID_NU_IBG": "210675505", "CID_GM_PON": null, "CIDADE_TP": null, "lat_cid": -3.56587445, "long_cid": -44.5812699 }, "geometry": { "type": "Point", "coordinates": [ -44.58127, -3.565874, 0.0 ] } },
{ "type": "Feature", "properties": { "CID_MUN_CD": 2110302, "CID_NM": "Santo Antônio dos Lopes", "CID_SG_UF": "MA", "CID_NU_IBG": "211030205", "CID_GM_PON": null, "CIDADE_TP": null, "lat_cid": -4.8705307, "long_cid": -44.3591747 }, "geometry": { "type": "Point", "coordinates": [ -44.359175, -4.870531, 0.0 ] } },
{ "type": "Feature", "properties": { "CID_MUN_CD": 2104099, "CID_NM": "Formosa da Serra Negra", "CID_SG_UF": "MA", "CID_NU_IBG": "210409905", "CID_GM_PON": null, "CIDADE_TP": null, "lat_cid": -6.44333607, "long_cid": -46.1902972 }, "geometry": { "type": "Point", "coordinates": [ -46.190297, -6.443336, 0.0 ] } },
{ "type": "Feature", "properties": { "CID_MUN_CD": 2100600, "CID_NM": "Amarante do Maranhão", "CID_SG_UF": "MA", "CID_NU_IBG": "210060005", "CID_GM_PON": null, "CIDADE_TP": null, "lat_cid": -5.57072378, "long_cid": -46.7445752 }, "geometry": { "type": "Point", "coordinates": [ -46.744575, -5.570724, 0.0 ] } },
{ "type": "Feature", "properties": { "CID_MUN_CD": 2109551, "CID_NM": "Ribamar Fiquene", "CID_SG_UF": "MA", "CID_NU_IBG": "210955105", "CID_GM_PON": null, "CIDADE_TP": null, "lat_cid": -5.93278406, "long_cid": -47.3888805 }, "geometry": { "type": "Point", "coordinates": [ -47.388881, -5.932784, 0.0 ] } },
{ "type": "Feature", "properties": { "CID_MUN_CD": 2100204, "CID_NM": "Alcântara", "CID_SG_UF": "MA", "CID_NU_IBG": "210020405", "CID_GM_PON": null, "CIDADE_TP": null, "lat_cid": -2.40666915, "long_cid": -44.4185022 }, "geometry": { "type": "Point", "coordinates": [ -44.418502, -2.406669, 0.0 ] } },
{ "type": "Feature", "properties": { "CID_MUN_CD": 2101103, "CID_NM": "Axixá", "CID_SG_UF": "MA", "CID_NU_IBG": "210110305", "CID_GM_PON": null, "CIDADE_TP": null, "lat_cid": -2.8366304, "long_cid": -44.0564762 }, "geometry": { "type": "Point", "coordinates": [ -44.056476, -2.83663, 0.0 ] } },
{ "type": "Feature", "properties": { "CID_MUN_CD": 2102150, "CID_NM": "Brejo de Areia", "CID_SG_UF": "MA", "CID_NU_IBG": "210215005", "CID_GM_PON": null, "CIDADE_TP": null, "lat_cid": -4.33054, "long_cid": -45.5841018 }, "geometry": { "type": "Point", "coordinates": [ -45.584102, -4.33054, 0.0 ] } },
{ "type": "Feature", "properties": { "CID_MUN_CD": 2102325, "CID_NM": "Buriticupu", "CID_SG_UF": "MA", "CID_NU_IBG": "210232505", "CID_GM_PON": null, "CIDADE_TP": null, "lat_cid": -4.32140763, "long_cid": -46.4542527 }, "geometry": { "type": "Point", "coordinates": [ -46.454253, -4.321408, 0.0 ] } },
{ "type": "Feature", "properties": { "CID_MUN_CD": 2104057, "CID_NM": "Estreito", "CID_SG_UF": "MA", "CID_NU_IBG": "210405705", "CID_GM_PON": null, "CIDADE_TP": null, "lat_cid": -6.5575629, "long_cid": -47.4439603 }, "geometry": { "type": "Point", "coordinates": [ -47.44396, -6.557563, 0.0 ] } },
{ "type": "Feature", "properties": { "CID_MUN_CD": 2111631, "CID_NM": "São Raimundo do Doca Bezerra", "CID_SG_UF": "MA", "CID_NU_IBG": "211163105", "CID_GM_PON": null, "CIDADE_TP": null, "lat_cid": -5.10605948, "long_cid": -45.0771803 }, "geometry": { "type": "Point", "coordinates": [ -45.07718, -5.106059, 0.0 ] } },
{ "type": "Feature", "properties": { "CID_MUN_CD": 2103802, "CID_NM": "Dom Pedro", "CID_SG_UF": "MA", "CID_NU_IBG": "210380205", "CID_GM_PON": null, "CIDADE_TP": null, "lat_cid": -5.04052328, "long_cid": -44.439477 }, "geometry": { "type": "Point", "coordinates": [ -44.439477, -5.040523, 0.0 ] } },
{ "type": "Feature", "properties": { "CID_MUN_CD": 2111573, "CID_NM": "São Pedro dos Crentes", "CID_SG_UF": "MA", "CID_NU_IBG": "211157305", "CID_GM_PON": null, "CIDADE_TP": null, "lat_cid": -6.82524586, "long_cid": -46.529803 }, "geometry": { "type": "Point", "coordinates": [ -46.529803, -6.825246, 0.0 ] } },
{ "type": "Feature", "properties": { "CID_MUN_CD": 2108454, "CID_NM": "Peritoró", "CID_SG_UF": "MA", "CID_NU_IBG": "210845405", "CID_GM_PON": null, "CIDADE_TP": null, "lat_cid": -4.37300234, "long_cid": -44.3313479 }, "geometry": { "type": "Point", "coordinates": [ -44.331348, -4.373002, 0.0 ] } },
{ "type": "Feature", "properties": { "CID_MUN_CD": 2110401, "CID_NM": "São Benedito do Rio Preto", "CID_SG_UF": "MA", "CID_NU_IBG": "211040105", "CID_GM_PON": null, "CIDADE_TP": null, "lat_cid": -3.32661592, "long_cid": -43.524331 }, "geometry": { "type": "Point", "coordinates": [ -43.524331, -3.326616, 0.0 ] } },
{ "type": "Feature", "properties": { "CID_MUN_CD": 2111706, "CID_NM": "São Vicente Ferrer", "CID_SG_UF": "MA", "CID_NU_IBG": "211170605", "CID_GM_PON": null, "CIDADE_TP": null, "lat_cid": -2.89238211, "long_cid": -44.8801026 }, "geometry": { "type": "Point", "coordinates": [ -44.880103, -2.892382, 0.0 ] } },
{ "type": "Feature", "properties": { "CID_MUN_CD": 2102077, "CID_NM": "Bom Lugar", "CID_SG_UF": "MA", "CID_NU_IBG": "210207705", "CID_GM_PON": null, "CIDADE_TP": null, "lat_cid": -4.37334017, "long_cid": -45.0399205 }, "geometry": { "type": "Point", "coordinates": [ -45.039921, -4.37334, 0.0 ] } },
{ "type": "Feature", "properties": { "CID_MUN_CD": 2110856, "CID_NM": "São Francisco do Brejão", "CID_SG_UF": "MA", "CID_NU_IBG": "211085605", "CID_GM_PON": null, "CIDADE_TP": null, "lat_cid": -5.12435063, "long_cid": -47.3869967 }, "geometry": { "type": "Point", "coordinates": [ -47.386997, -5.124351, 0.0 ] } },
{ "type": "Feature", "properties": { "CID_MUN_CD": 2100055, "CID_NM": "Açailândia", "CID_SG_UF": "MA", "CID_NU_IBG": "210005505", "CID_GM_PON": null, "CIDADE_TP": null, "lat_cid": -4.95006475, "long_cid": -47.4905996 }, "geometry": { "type": "Point", "coordinates": [ -47.4906, -4.950065, 0.0 ] } },
{ "type": "Feature", "properties": { "CID_MUN_CD": 2101202, "CID_NM": "Bacabal", "CID_SG_UF": "MA", "CID_NU_IBG": "210120205", "CID_GM_PON": null, "CIDADE_TP": null, "lat_cid": -4.22877494, "long_cid": -44.7824675 }, "geometry": { "type": "Point", "coordinates": [ -44.782468, -4.228775, 0.0 ] } },
{ "type": "Feature", "properties": { "CID_MUN_CD": 2100709, "CID_NM": "Anajatuba", "CID_SG_UF": "MA", "CID_NU_IBG": "210070905", "CID_GM_PON": null, "CIDADE_TP": null, "lat_cid": -3.26491792, "long_cid": -44.6167234 }, "geometry": { "type": "Point", "coordinates": [ -44.616723, -3.264918, 0.0 ] } },
{ "type": "Feature", "properties": { "CID_MUN_CD": 2110237, "CID_NM": "Santana do Maranhão", "CID_SG_UF": "MA", "CID_NU_IBG": "211023705", "CID_GM_PON": null, "CIDADE_TP": null, "lat_cid": -3.11208577, "long_cid": -42.4139799 }, "geometry": { "type": "Point", "coordinates": [ -42.41398, -3.112086, 0.0 ] } },
{ "type": "Feature", "properties": { "CID_MUN_CD": 2108009, "CID_NM": "Pastos Bons", "CID_SG_UF": "MA", "CID_NU_IBG": "210800905", "CID_GM_PON": null, "CIDADE_TP": null, "lat_cid": -6.59885622, "long_cid": -44.0845393 }, "geometry": { "type": "Point", "coordinates": [ -44.084539, -6.598856, 0.0 ] } },
{ "type": "Feature", "properties": { "CID_MUN_CD": 2106706, "CID_NM": "Mirador", "CID_SG_UF": "MA", "CID_NU_IBG": "210670605", "CID_GM_PON": null, "CIDADE_TP": null, "lat_cid": -6.36951259, "long_cid": -44.371092 }, "geometry": { "type": "Point", "coordinates": [ -44.371092, -6.369513, 0.0 ] } },
{ "type": "Feature", "properties": { "CID_MUN_CD": 2110658, "CID_NM": "São Domingos do Azeitão", "CID_SG_UF": "MA", "CID_NU_IBG": "211065805", "CID_GM_PON": null, "CIDADE_TP": null, "lat_cid": -6.81238683, "long_cid": -44.6445113 }, "geometry": { "type": "Point", "coordinates": [ -44.644511, -6.812387, 0.0 ] } },
{ "type": "Feature", "properties": { "CID_MUN_CD": 2112506, "CID_NM": "Tutóia", "CID_SG_UF": "MA", "CID_NU_IBG": "211250605", "CID_GM_PON": null, "CIDADE_TP": null, "lat_cid": -2.76165686, "long_cid": -42.2746371 }, "geometry": { "type": "Point", "coordinates": [ -42.274637, -2.761657, 0.0 ] } },
{ "type": "Feature", "properties": { "CID_MUN_CD": 2107902, "CID_NM": "Passagem Franca", "CID_SG_UF": "MA", "CID_NU_IBG": "210790205", "CID_GM_PON": null, "CIDADE_TP": null, "lat_cid": -6.1787242, "long_cid": -43.7781789 }, "geometry": { "type": "Point", "coordinates": [ -43.778179, -6.178724, 0.0 ] } },
{ "type": "Feature", "properties": { "CID_MUN_CD": 2111904, "CID_NM": "Sucupira do Norte", "CID_SG_UF": "MA", "CID_NU_IBG": "211190405", "CID_GM_PON": null, "CIDADE_TP": null, "lat_cid": -6.48045073, "long_cid": -44.1899991 }, "geometry": { "type": "Point", "coordinates": [ -44.189999, -6.480451, 0.0 ] } },
{ "type": "Feature", "properties": { "CID_MUN_CD": 2100303, "CID_NM": "Aldeias Altas", "CID_SG_UF": "MA", "CID_NU_IBG": "210030305", "CID_GM_PON": null, "CIDADE_TP": null, "lat_cid": -4.62989481, "long_cid": -43.4701642 }, "geometry": { "type": "Point", "coordinates": [ -43.470164, -4.629895, 0.0 ] } },
{ "type": "Feature", "properties": { "CID_MUN_CD": 2103505, "CID_NM": "Colinas", "CID_SG_UF": "MA", "CID_NU_IBG": "210350505", "CID_GM_PON": null, "CIDADE_TP": null, "lat_cid": -6.03214606, "long_cid": -44.2473878 }, "geometry": { "type": "Point", "coordinates": [ -44.247388, -6.032146, 0.0 ] } },
{ "type": "Feature", "properties": { "CID_MUN_CD": 2107803, "CID_NM": "Parnarama", "CID_SG_UF": "MA", "CID_NU_IBG": "210780305", "CID_GM_PON": null, "CIDADE_TP": null, "lat_cid": -5.68388668, "long_cid": -43.1069669 }, "geometry": { "type": "Point", "coordinates": [ -43.106967, -5.683887, 0.0 ] } },
{ "type": "Feature", "properties": { "CID_MUN_CD": 2111102, "CID_NM": "São João dos Patos", "CID_SG_UF": "MA", "CID_NU_IBG": "211110205", "CID_GM_PON": null, "CIDADE_TP": null, "lat_cid": -6.49630246, "long_cid": -43.7057297 }, "geometry": { "type": "Point", "coordinates": [ -43.70573, -6.496302, 0.0 ] } },
{ "type": "Feature", "properties": { "CID_MUN_CD": 2112001, "CID_NM": "Tasso Fragoso", "CID_SG_UF": "MA", "CID_NU_IBG": "211200105", "CID_GM_PON": null, "CIDADE_TP": null, "lat_cid": -8.47370855, "long_cid": -45.7479329 }, "geometry": { "type": "Point", "coordinates": [ -45.747933, -8.473709, 0.0 ] } },
{ "type": "Feature", "properties": { "CID_MUN_CD": 2106300, "CID_NM": "Magalhães de Almeida", "CID_SG_UF": "MA", "CID_NU_IBG": "210630005", "CID_GM_PON": null, "CIDADE_TP": null, "lat_cid": -3.39642808, "long_cid": -42.2046673 }, "geometry": { "type": "Point", "coordinates": [ -42.204667, -3.396428, 0.0 ] } },
{ "type": "Feature", "properties": { "CID_MUN_CD": 2103901, "CID_NM": "Duque Bacelar", "CID_SG_UF": "MA", "CID_NU_IBG": "210390105", "CID_GM_PON": null, "CIDADE_TP": null, "lat_cid": -4.15081999, "long_cid": -42.9448057 }, "geometry": { "type": "Point", "coordinates": [ -42.944806, -4.15082, 0.0 ] } },
{ "type": "Feature", "properties": { "CID_MUN_CD": 2100154, "CID_NM": "Água Doce do Maranhão", "CID_SG_UF": "MA", "CID_NU_IBG": "210015405", "CID_GM_PON": null, "CIDADE_TP": null, "lat_cid": -2.83918272, "long_cid": -42.1174141 }, "geometry": { "type": "Point", "coordinates": [ -42.117414, -2.839183, 0.0 ] } },
{ "type": "Feature", "properties": { "CID_MUN_CD": 2110609, "CID_NM": "São Bernardo", "CID_SG_UF": "MA", "CID_NU_IBG": "211060905", "CID_GM_PON": null, "CIDADE_TP": null, "lat_cid": -3.36858987, "long_cid": -42.423135 }, "geometry": { "type": "Point", "coordinates": [ -42.423135, -3.36859, 0.0 ] } },
{ "type": "Feature", "properties": { "CID_MUN_CD": 2107704, "CID_NM": "Paraibano", "CID_SG_UF": "MA", "CID_NU_IBG": "210770405", "CID_GM_PON": null, "CIDADE_TP": null, "lat_cid": -6.4319731, "long_cid": -43.9895886 }, "geometry": { "type": "Point", "coordinates": [ -43.989589, -6.431973, 0.0 ] } },
{ "type": "Feature", "properties": { "CID_MUN_CD": 2110278, "CID_NM": "Santo Amaro do Maranhão", "CID_SG_UF": "MA", "CID_NU_IBG": "211027805", "CID_GM_PON": null, "CIDADE_TP": null, "lat_cid": -2.50084155, "long_cid": -43.2534064 }, "geometry": { "type": "Point", "coordinates": [ -43.253406, -2.500842, 0.0 ] } },
{ "type": "Feature", "properties": { "CID_MUN_CD": 2100907, "CID_NM": "Araioses", "CID_SG_UF": "MA", "CID_NU_IBG": "210090705", "CID_GM_PON": null, "CIDADE_TP": null, "lat_cid": -2.888866, "long_cid": -41.906557 }, "geometry": { "type": "Point", "coordinates": [ -41.906557, -2.888866, 0.0 ] } },
{ "type": "Feature", "properties": { "CID_MUN_CD": 2112209, "CID_NM": "Timon", "CID_SG_UF": "MA", "CID_NU_IBG": "211220905", "CID_GM_PON": null, "CIDADE_TP": null, "lat_cid": -5.10757837, "long_cid": -42.8378496 }, "geometry": { "type": "Point", "coordinates": [ -42.83785, -5.107578, 0.0 ] } },
{ "type": "Feature", "properties": { "CID_MUN_CD": 2103406, "CID_NM": "Coelho Neto", "CID_SG_UF": "MA", "CID_NU_IBG": "210340605", "CID_GM_PON": null, "CIDADE_TP": null, "lat_cid": -4.25507301, "long_cid": -43.012828 }, "geometry": { "type": "Point", "coordinates": [ -43.012828, -4.255073, 0.0 ] } },
{ "type": "Feature", "properties": { "CID_MUN_CD": 2108058, "CID_NM": "Paulino Neves", "CID_SG_UF": "MA", "CID_NU_IBG": "210805805", "CID_GM_PON": null, "CIDADE_TP": null, "lat_cid": -2.72222448, "long_cid": -42.5369678 }, "geometry": { "type": "Point", "coordinates": [ -42.536968, -2.722224, 0.0 ] } },
{ "type": "Feature", "properties": { "CID_MUN_CD": 2110807, "CID_NM": "São Félix de Balsas", "CID_SG_UF": "MA", "CID_NU_IBG": "211080705", "CID_GM_PON": null, "CIDADE_TP": null, "lat_cid": -7.08028931, "long_cid": -44.8161196 }, "geometry": { "type": "Point", "coordinates": [ -44.81612, -7.080289, 0.0 ] } },
{ "type": "Feature", "properties": { "CID_MUN_CD": 2110906, "CID_NM": "São Francisco do Maranhão", "CID_SG_UF": "MA", "CID_NU_IBG": "211090605", "CID_GM_PON": null, "CIDADE_TP": null, "lat_cid": -6.24766747, "long_cid": -42.8578922 }, "geometry": { "type": "Point", "coordinates": [ -42.857892, -6.247667, 0.0 ] } },
{ "type": "Feature", "properties": { "CID_MUN_CD": 2106409, "CID_NM": "Mata Roma", "CID_SG_UF": "MA", "CID_NU_IBG": "210640905", "CID_GM_PON": null, "CIDADE_TP": null, "lat_cid": -3.61995306, "long_cid": -43.1163421 }, "geometry": { "type": "Point", "coordinates": [ -43.116342, -3.619953, 0.0 ] } },
{ "type": "Feature", "properties": { "CID_MUN_CD": 2103208, "CID_NM": "Chapadinha", "CID_SG_UF": "MA", "CID_NU_IBG": "210320805", "CID_GM_PON": null, "CIDADE_TP": null, "lat_cid": -3.73682273, "long_cid": -43.3563153 }, "geometry": { "type": "Point", "coordinates": [ -43.356315, -3.736823, 0.0 ] } },
{ "type": "Feature", "properties": { "CID_MUN_CD": 2106607, "CID_NM": "Matões", "CID_SG_UF": "MA", "CID_NU_IBG": "210660705", "CID_GM_PON": null, "CIDADE_TP": null, "lat_cid": -5.52401192, "long_cid": -43.2043605 }, "geometry": { "type": "Point", "coordinates": [ -43.204361, -5.524012, 0.0 ] } },
{ "type": "Feature", "properties": { "CID_MUN_CD": 2109403, "CID_NM": "Primeira Cruz", "CID_SG_UF": "MA", "CID_NU_IBG": "210940305", "CID_GM_PON": null, "CIDADE_TP": null, "lat_cid": -2.51133436, "long_cid": -43.4412897 }, "geometry": { "type": "Point", "coordinates": [ -43.44129, -2.511334, 0.0 ] } },
{ "type": "Feature", "properties": { "CID_MUN_CD": 2101806, "CID_NM": "Benedito Leite", "CID_SG_UF": "MA", "CID_NU_IBG": "210180605", "CID_GM_PON": null, "CIDADE_TP": null, "lat_cid": -7.22015849, "long_cid": -44.5545435 }, "geometry": { "type": "Point", "coordinates": [ -44.554544, -7.220158, 0.0 ] } },
{ "type": "Feature", "properties": { "CID_MUN_CD": 2101707, "CID_NM": "Barreirinhas", "CID_SG_UF": "MA", "CID_NU_IBG": "210170705", "CID_GM_PON": null, "CIDADE_TP": null, "lat_cid": -2.75247897, "long_cid": -42.8278692 }, "geometry": { "type": "Point", "coordinates": [ -42.827869, -2.752479, 0.0 ] } },
{ "type": "Feature", "properties": { "CID_MUN_CD": 2100105, "CID_NM": "Afonso Cunha", "CID_SG_UF": "MA", "CID_NU_IBG": "210010505", "CID_GM_PON": null, "CIDADE_TP": null, "lat_cid": -4.13186031, "long_cid": -43.3251909 }, "geometry": { "type": "Point", "coordinates": [ -43.325191, -4.13186, 0.0 ] } },
{ "type": "Feature", "properties": { "CID_MUN_CD": 2107308, "CID_NM": "Nova Iorque", "CID_SG_UF": "MA", "CID_NU_IBG": "210730805", "CID_GM_PON": null, "CIDADE_TP": null, "lat_cid": -6.7356145, "long_cid": -44.0460092 }, "geometry": { "type": "Point", "coordinates": [ -44.046009, -6.735615, 0.0 ] } },
{ "type": "Feature", "properties": { "CID_MUN_CD": 2105922, "CID_NM": "Lagoa do Mato", "CID_SG_UF": "MA", "CID_NU_IBG": "210592205", "CID_GM_PON": null, "CIDADE_TP": null, "lat_cid": -6.04765091, "long_cid": -43.5278468 }, "geometry": { "type": "Point", "coordinates": [ -43.527847, -6.047651, 0.0 ] } },
{ "type": "Feature", "properties": { "CID_MUN_CD": 2111953, "CID_NM": "Sucupira do Riachão", "CID_SG_UF": "MA", "CID_NU_IBG": "211195305", "CID_GM_PON": null, "CIDADE_TP": null, "lat_cid": -6.41622969, "long_cid": -43.5451692 }, "geometry": { "type": "Point", "coordinates": [ -43.545169, -6.41623, 0.0 ] } },
{ "type": "Feature", "properties": { "CID_MUN_CD": 2100808, "CID_NM": "Anapurus", "CID_SG_UF": "MA", "CID_NU_IBG": "210080805", "CID_GM_PON": null, "CIDADE_TP": null, "lat_cid": -3.67433443, "long_cid": -43.1093802 }, "geometry": { "type": "Point", "coordinates": [ -43.10938, -3.674334, 0.0 ] } },
{ "type": "Feature", "properties": { "CID_MUN_CD": 2100501, "CID_NM": "Alto Parnaíba", "CID_SG_UF": "MA", "CID_NU_IBG": "210050105", "CID_GM_PON": null, "CIDADE_TP": null, "lat_cid": -9.11026496, "long_cid": -45.9336388 }, "geometry": { "type": "Point", "coordinates": [ -45.933639, -9.110265, 0.0 ] } },
{ "type": "Feature", "properties": { "CID_MUN_CD": 2104081, "CID_NM": "Fernando Falcão", "CID_SG_UF": "MA", "CID_NU_IBG": "210408105", "CID_GM_PON": null, "CIDADE_TP": null, "lat_cid": -6.15121747, "long_cid": -44.9009205 }, "geometry": { "type": "Point", "coordinates": [ -44.900921, -6.151217, 0.0 ] } },
{ "type": "Feature", "properties": { "CID_MUN_CD": 2112605, "CID_NM": "Urbano Santos", "CID_SG_UF": "MA", "CID_NU_IBG": "211260505", "CID_GM_PON": null, "CIDADE_TP": null, "lat_cid": -3.20912093, "long_cid": -43.400556 }, "geometry": { "type": "Point", "coordinates": [ -43.400556, -3.209121, 0.0 ] } },
{ "type": "Feature", "properties": { "CID_MUN_CD": 2105005, "CID_NM": "Humberto de Campos", "CID_SG_UF": "MA", "CID_NU_IBG": "210500505", "CID_GM_PON": null, "CIDADE_TP": null, "lat_cid": -2.59365043, "long_cid": -43.4654563 }, "geometry": { "type": "Point", "coordinates": [ -43.465456, -2.59365, 0.0 ] } },
{ "type": "Feature", "properties": { "CID_MUN_CD": 2107456, "CID_NM": "Olinda Nova do Maranhão", "CID_SG_UF": "MA", "CID_NU_IBG": "210745605", "CID_GM_PON": null, "CIDADE_TP": null, "lat_cid": -2.99968482, "long_cid": -44.9961886 }, "geometry": { "type": "Point", "coordinates": [ -44.996189, -2.999685, 0.0 ] } }
]
}
